     2.100          NAVIGATION                              RINEX VERSION / TYPE
fic2rin                                 12/17/2015 00:05:54 PGM / RUN BY / DATE
                                                            END OF HEADER
 3 15 12 16 19 59 44.0  .134250149131D-05 -.522959453519D-11  .000000000000D+00
     .230000000000D+02  .238750000000D+02  .472091093060D-08  .290595898296D+01
     .130198895931D-05  .396024086513D-03  .907108187675D-05  .515354069519D+04
     .331184000000D+06 -.242143869400D-07  .176299635318D+01 -.521540641785D-07
     .958799105831D+00  .206656250000D+03 -.309248423308D+01 -.805462122159D-08
     .379301513716D-09  .100000000000D+01  .187500000000D+04  .000000000000D+00
     .240000000000D+01  .000000000000D+00  .186264514923D-08  .230000000000D+02
     .327546000000D+06  .400000000000D+01
 3 15 12 16 21 59 44.0  .130431726575D-05 -.522959453519D-11  .000000000000D+00
     .310000000000D+02  .166250000000D+02  .471269630272D-08 -.232812191295D+01
     .840052962303D-06  .397551455535D-03  .958889722824D-05  .515353769302D+04
     .338384000000D+06  .298023223877D-07  .176293865130D+01 -.279396772385D-07
     .958802025816D+00  .197750000000D+03 -.309132413904D+01 -.800533345427D-08
     .373586989969D-09  .100000000000D+01  .187500000000D+04  .000000000000D+00
     .240000000000D+01  .000000000000D+00  .186264514923D-08  .310000000000D+02
     .331206000000D+06  .400000000000D+01
14 15 12 16 21 59 44.0  .150520354509D-04 -.238742359215D-11  .000000000000D+00
     .230000000000D+02  .121875000000D+02  .479234247744D-08 -.277521791668D+01
     .715255737305D-06  .831816077698D-02  .612996518612D-05  .515369205856D+04
     .338384000000D+06  .147148966789D-06  .288631220381D+01 -.447034835815D-07
     .965266129769D+00  .261687500000D+03 -.194780498743D+01 -.806819321549D-08
    -.172150027883D-09  .100000000000D+01  .187500000000D+04  .000000000000D+00
     .240000000000D+01  .000000000000D+00 -.931322574615D-08  .230000000000D+02
     .331206000000D+06  .400000000000D+01
 1 15 12 16 22  0  0.0  .681495293975D-05  .909494701773D-12  .000000000000D+00
     .650000000000D+02 -.831250000000D+02  .435696719946D-08  .138826755382D+01
    -.436790287495D-05  .488188548479D-02  .938959419727D-05  .515365991783D+04
     .338400000000D+06 -.447034835815D-07  .721794338637D+00 -.558793544769D-08
     .963422444835D+00  .200000000000D+03  .492976801251D+00 -.798568977889D-08
    -.678599694973D-10  .100000000000D+01  .187500000000D+04  .000000000000D+00
     .240000000000D+01  .000000000000D+00  .512227416039D-08  .650000000000D+02
     .331206000000D+06  .400000000000D+01
 2 15 12 16 22  0  0.0  .597978942096D-03  .568434188608D-12  .000000000000D+00
     .540000000000D+02 -.843437500000D+02  .471698219553D-08  .194762682449D+01
    -.444985926151D-05  .151075934991D-01  .981613993645D-05  .515369159889D+04
     .338400000000D+06 -.281259417534D-06  .679796043777D+00 -.288709998131D-06
     .942152255257D+00  .180750000000D+03 -.220216554407D+01 -.813069581897D-08
     .342871424828D-10  .100000000000D+01  .187500000000D+04  .000000000000D+00
     .240000000000D+01  .000000000000D+00 -.204890966415D-07  .540000000000D+02
     .331206000000D+06  .400000000000D+01
 5 15 12 16 22  0  0.0 -.164401251823D-03  .363797880709D-11  .000000000000D+00
     .700000000000D+02  .334375000000D+02  .497806449923D-08 -.191557067889D+01
     .145658850670D-05  .455911713652D-02  .907108187675D-05  .515369494820D+04
     .338400000000D+06 -.242143869400D-07  .175321266281D+01 -.521540641785D-07
     .945937266130D+00  .195062500000D+03  .483081000160D+00 -.816141138411D-08
     .422517599554D-09  .100000000000D+01  .187500000000D+04  .000000000000D+00
     .240000000000D+01  .000000000000D+00 -.107102096081D-07  .700000000000D+02
     .331206000000D+06  .400000000000D+01
 6 15 12 16 22  0  0.0  .113319605589D-03  .648014975013D-11  .000000000000D+00
     .350000000000D+02 -.740937500000D+02  .422910473062D-08 -.295986121485D+01
    -.378116965294D-05  .231811194681D-03  .960566103458D-05  .515360606956D+04
     .338400000000D+06 -.186264514923D-07  .713338500978D+00 -.186264514923D-08
     .963283615372D+00  .194468750000D+03 -.300722121712D+01 -.792032991353D-08
     .375015620906D-10  .100000000000D+01  .187500000000D+04  .000000000000D+00
     .240000000000D+01  .000000000000D+00  .419095158577D-08  .350000000000D+02
     .331206000000D+06  .400000000000D+01
 7 15 12 16 22  0  0.0  .477138441056D-03 -.136424205266D-11  .000000000000D+00
     .610000000000D+02  .996875000000D+01  .437553940164D-08  .716263659805D+00
     .678002834320D-06  .900319265202D-02  .923685729504D-05  .515368707466D+04
     .338400000000D+06 -.409781932831D-07 -.240200493744D+01  .117346644402D-06
     .968370352695D+00  .204625000000D+03 -.267778531532D+01 -.806283584948D-08
    -.426803492364D-09  .100000000000D+01  .187500000000D+04  .000000000000D+00
     .340000000000D+01  .000000000000D+00 -.111758708954D-07  .610000000000D+02
     .331206000000D+06  .400000000000D+01
 8 15 12 16 22  0  0.0 -.164657831192D-04 -.147792889038D-11  .000000000000D+00
     .810000000000D+02 -.305000000000D+02  .473805450185D-08 -.138289928961D+01
    -.149011611938D-05  .163622852415D-02  .369735062122D-05  .515361651993D+04
     .338400000000D+06 -.391155481339D-07 -.336746025909D+00  .707805156708D-07
     .961751094576D+00  .309906250000D+03 -.158177600389D+01 -.845249493748D-08
     .357157734196D-10  .100000000000D+01  .187500000000D+04  .000000000000D+00
     .240000000000D+01  .000000000000D+00  .465661287308D-08  .810000000000D+02
     .331206000000D+06  .400000000000D+01
 9 15 12 16 22  0  0.0  .300100073218D-04  .807176547823D-11  .000000000000D+00
     .470000000000D+02  .151250000000D+02  .508235455761D-08 -.281593835260D+01
     .810250639915D-06  .505193602294D-03  .573508441448D-05  .515366921425D+04
     .338400000000D+06 -.372529029846D-08  .280408791301D+01  .614672899246D-07
     .956184114895D+00  .268250000000D+03  .196004105075D+01 -.834213319762D-08
    -.750031241812D-10  .100000000000D+01  .187500000000D+04  .000000000000D+00
     .240000000000D+01  .000000000000D+00  .931322574615D-09  .470000000000D+02
     .331206000000D+06  .400000000000D+01
10 15 12 16 22  0  0.0  .433856621385D-04  .511590769747D-11  .000000000000D+00
     .230000000000D+02  .263750000000D+02  .463483591666D-08 -.653697017630D+00
     .137276947498D-05  .919040176086D-03  .100173056126D-04  .515368495750D+04
     .338400000000D+06  .558793544769D-07  .175879560878D+01  .409781932831D-07
     .959075205286D+00  .184062500000D+03 -.295490686577D+01 -.801533387083D-08
     .416803075807D-09  .100000000000D+01  .187500000000D+04  .000000000000D+00
     .240000000000D+01  .000000000000D+00  .325962901115D-08  .230000000000D+02
     .331206000000D+06  .400000000000D+01
11 15 12 16 22  0  0.0 -.622098799795D-03 -.204636307899D-11  .000000000000D+00
     .380000000000D+02 -.936250000000D+02  .618490048307D-08  .827825507261D+00
    -.503472983837D-05  .162526409840D-01  .667385756969D-05  .515364333344D+04
     .338400000000D+06 -.169500708580D-06  .356487606534D+00 -.154599547386D-06
     .895274160151D+00  .220750000000D+03  .148936186108D+01 -.920466912570D-08
    -.175364447490D-09  .100000000000D+01  .187500000000D+04  .000000000000D+00
     .240000000000D+01  .000000000000D+00 -.121071934700D-07  .380000000000D+02
     .331206000000D+06  .400000000000D+01
12 15 12 16 22  0  0.0  .353828538209D-03  .295585778076D-11  .000000000000D+00
     .650000000000D+02  .687187500000D+02  .390801992757D-08  .323592142409D+00
     .354461371899D-05  .561856292188D-02  .661239027977D-05  .515356338692D+04
     .338400000000D+06  .279396772385D-07 -.132898132696D+01  .167638063431D-06
     .990051246283D+00  .267156250000D+03  .638809972657D+00 -.797211778499D-08
     .161435295857D-09  .100000000000D+01  .187500000000D+04  .000000000000D+00
     .240000000000D+01  .000000000000D+00 -.125728547573D-07  .650000000000D+02
     .331206000000D+06  .400000000000D+01
13 15 12 16 22  0  0.0 -.171844381839D-03 -.272848410532D-11  .000000000000D+00
     .170000000000D+02  .737500000000D+01  .459447709270D-08  .165016705983D+01
     .337138772011D-06  .465683010407D-02  .637769699097D-05  .515368078613D+04
     .338400000000D+06  .558793544769D-07  .292227008652D+01 -.558793544769D-07
     .972799691206D+00  .262656250000D+03  .200908335176D+01 -.804390648956D-08
    -.257153568621D-09  .100000000000D+01  .187500000000D+04  .000000000000D+00
     .240000000000D+01  .000000000000D+00 -.111758708954D-07  .170000000000D+02
     .331206000000D+06  .400000000000D+01
15 15 12 16 22  0  0.0 -.287520233542D-03 -.193267624127D-11  .000000000000D+00
     .130000000000D+03  .110000000000D+02  .559773316806D-08  .275223077476D+01
     .571832060814D-06  .790438859258D-02  .584498047829D-05  .515376227379D+04
     .338400000000D+06 -.100582838058D-06  .275554359957D+01 -.100582838058D-06
     .931935441663D+00  .252593750000D+03  .452975922071D+00 -.847070998193D-08
    -.130005415247D-09  .100000000000D+01  .187500000000D+04  .000000000000D+00
     .340000000000D+01  .000000000000D+00 -.107102096081D-07  .130000000000D+03
     .331206000000D+06  .400000000000D+01
16 15 12 16 22  0  0.0 -.567701645195D-04  .341060513165D-11  .000000000000D+00
     .520000000000D+02  .636250000000D+02  .378265756287D-08 -.173252020445D+01
     .325590372086D-05  .828183314297D-02  .746175646782D-05  .515367599869D+04
     .338400000000D+06  .353902578354D-07 -.131023284681D+01 -.111758708954D-06
     .990579090532D+00  .251843750000D+03  .313401339498D+00 -.781389690874D-08
     .306441335940D-09  .100000000000D+01  .187500000000D+04  .000000000000D+00
     .240000000000D+01  .000000000000D+00 -.102445483208D-07  .520000000000D+02
     .331206000000D+06  .400000000000D+01
